<?xml version="1.0" encoding="UTF-8"?>
<ndm xmlns:xsi="http://www.w3.org/2001/XMLSchema-instance" xsi:noNamespaceSchemaLocation="https://sanaregistry.org/r/ndmxml_unqualified/ndmxml-2.0.0-master-2.0.xsd">
<omm id="CCSDS_OMM_VERS" version="2.0">
<header><CREATION_DATE/><ORIGINATOR/></header><body><segment><metadata><OBJECT_NAME>ONEWEB-0300</OBJECT_NAME><OBJECT_ID>2021-075Q</OBJECT_ID><CENTER_NAME>EARTH</CENTER_NAME><REF_FRAME>TEME</REF_FRAME><TIME_SYSTEM>UTC</TIME_SYSTEM><MEAN_ELEMENT_THEORY>SGP4</MEAN_ELEMENT_THEORY></metadata><data><meanElements><EPOCH>2025-08-31T11:29:43.185120</EPOCH><MEAN_MOTION>13.12441731</MEAN_MOTION><ECCENTRICITY>.00019096</ECCENTRICITY><INCLINATION>87.8873</INCLINATION><RA_OF_ASC_NODE>48.2180</RA_OF_ASC_NODE><ARG_OF_PERICENTER>83.7313</ARG_OF_PERICENTER><MEAN_ANOMALY>276.4033</MEAN_ANOMALY></meanElements><tleParameters><EPHEMERIS_TYPE>0</EPHEMERIS_TYPE><CLASSIFICATION_TYPE>U</CLASSIFICATION_TYPE><NORAD_CAT_ID>49089</NORAD_CAT_ID><ELEMENT_SET_NO>999</ELEMENT_SET_NO><REV_AT_EPOCH>19720</REV_AT_EPOCH><BSTAR>-.87436535E-3</BSTAR><MEAN_MOTION_DOT>-.302E-5</MEAN_MOTION_DOT><MEAN_MOTION_DDOT>0</MEAN_MOTION_DDOT></tleParameters></data></segment></body></omm>
<omm id="CCSDS_OMM_VERS" version="2.0">
<header><CREATION_DATE/><ORIGINATOR/></header><body><segment><metadata><OBJECT_NAME>ONEWEB-0301</OBJECT_NAME><OBJECT_ID>2021-075R</OBJECT_ID><CENTER_NAME>EARTH</CENTER_NAME><REF_FRAME>TEME</REF_FRAME><TIME_SYSTEM>UTC</TIME_SYSTEM><MEAN_ELEMENT_THEORY>SGP4</MEAN_ELEMENT_THEORY></metadata><data><meanElements><EPOCH>2025-08-31T12:56:09.187008</EPOCH><MEAN_MOTION>13.12442159</MEAN_MOTION><ECCENTRICITY>.00019392</ECCENTRICITY><INCLINATION>87.8871</INCLINATION><RA_OF_ASC_NODE>48.2108</RA_OF_ASC_NODE><ARG_OF_PERICENTER>80.5638</ARG_OF_PERICENTER><MEAN_ANOMALY>279.5709</MEAN_ANOMALY></meanElements><tleParameters><EPHEMERIS_TYPE>0</EPHEMERIS_TYPE><CLASSIFICATION_TYPE>U</CLASSIFICATION_TYPE><NORAD_CAT_ID>49090</NORAD_CAT_ID><ELEMENT_SET_NO>999</ELEMENT_SET_NO><REV_AT_EPOCH>19657</REV_AT_EPOCH><BSTAR>.77557318E-3</BSTAR><MEAN_MOTION_DOT>.292E-5</MEAN_MOTION_DOT><MEAN_MOTION_DDOT>0</MEAN_MOTION_DDOT></tleParameters></data></segment></body></omm>
<omm id="CCSDS_OMM_VERS" version="2.0">
<header><CREATION_DATE/><ORIGINATOR/></header><body><segment><metadata><OBJECT_NAME>ONEWEB-0302</OBJECT_NAME><OBJECT_ID>2021-075S</OBJECT_ID><CENTER_NAME>EARTH</CENTER_NAME><REF_FRAME>TEME</REF_FRAME><TIME_SYSTEM>UTC</TIME_SYSTEM><MEAN_ELEMENT_THEORY>SGP4</MEAN_ELEMENT_THEORY></metadata><data><meanElements><EPOCH>2025-08-31T12:37:27.886080</EPOCH><MEAN_MOTION>13.12445244</MEAN_MOTION><ECCENTRICITY>.00016007</ECCENTRICITY><INCLINATION>87.8882</INCLINATION><RA_OF_ASC_NODE>48.2191</RA_OF_ASC_NODE><ARG_OF_PERICENTER>103.4247</ARG_OF_PERICENTER><MEAN_ANOMALY>256.7060</MEAN_ANOMALY></meanElements><tleParameters><EPHEMERIS_TYPE>0</EPHEMERIS_TYPE><CLASSIFICATION_TYPE>U</CLASSIFICATION_TYPE><NORAD_CAT_ID>49091</NORAD_CAT_ID><ELEMENT_SET_NO>999</ELEMENT_SET_NO><REV_AT_EPOCH>19655</REV_AT_EPOCH><BSTAR>.95083214E-3</BSTAR><MEAN_MOTION_DOT>.355E-5</MEAN_MOTION_DOT><MEAN_MOTION_DDOT>0</MEAN_MOTION_DDOT></tleParameters></data></segment></body></omm>
<omm id="CCSDS_OMM_VERS" version="2.0">
<header><CREATION_DATE/><ORIGINATOR/></header><body><segment><metadata><OBJECT_NAME>ONEWEB-0304</OBJECT_NAME><OBJECT_ID>2021-075T</OBJECT_ID><CENTER_NAME>EARTH</CENTER_NAME><REF_FRAME>TEME</REF_FRAME><TIME_SYSTEM>UTC</TIME_SYSTEM><MEAN_ELEMENT_THEORY>SGP4</MEAN_ELEMENT_THEORY></metadata><data><meanElements><EPOCH>2025-08-31T13:08:48.827040</EPOCH><MEAN_MOTION>13.17648454</MEAN_MOTION><ECCENTRICITY>.00018018</ECCENTRICITY><INCLINATION>87.9032</INCLINATION><RA_OF_ASC_NODE>63.4856</RA_OF_ASC_NODE><ARG_OF_PERICENTER>94.6727</ARG_OF_PERICENTER><MEAN_ANOMALY>265.4610</MEAN_ANOMALY></meanElements><tleParameters><EPHEMERIS_TYPE>0</EPHEMERIS_TYPE><CLASSIFICATION_TYPE>U</CLASSIFICATION_TYPE><NORAD_CAT_ID>49092</NORAD_CAT_ID><ELEMENT_SET_NO>999</ELEMENT_SET_NO><REV_AT_EPOCH>19543</REV_AT_EPOCH><BSTAR>.74811428E-4</BSTAR><MEAN_MOTION_DOT>.42E-6</MEAN_MOTION_DOT><MEAN_MOTION_DDOT>0</MEAN_MOTION_DDOT></tleParameters></data></segment></body></omm>
<omm id="CCSDS_OMM_VERS" version="2.0">
<header><CREATION_DATE/><ORIGINATOR/></header><body><segment><metadata><OBJECT_NAME>ONEWEB-0305</OBJECT_NAME><OBJECT_ID>2021-075U</OBJECT_ID><CENTER_NAME>EARTH</CENTER_NAME><REF_FRAME>TEME</REF_FRAME><TIME_SYSTEM>UTC</TIME_SYSTEM><MEAN_ELEMENT_THEORY>SGP4</MEAN_ELEMENT_THEORY></metadata><data><meanElements><EPOCH>2025-08-31T12:59:05.798976</EPOCH><MEAN_MOTION>13.17650864</MEAN_MOTION><ECCENTRICITY>.00020211</ECCENTRICITY><INCLINATION>87.9038</INCLINATION><RA_OF_ASC_NODE>63.4634</RA_OF_ASC_NODE><ARG_OF_PERICENTER>100.2574</ARG_OF_PERICENTER><MEAN_ANOMALY>259.8786</MEAN_ANOMALY></meanElements><tleParameters><EPHEMERIS_TYPE>0</EPHEMERIS_TYPE><CLASSIFICATION_TYPE>U</CLASSIFICATION_TYPE><NORAD_CAT_ID>49093</NORAD_CAT_ID><ELEMENT_SET_NO>999</ELEMENT_SET_NO><REV_AT_EPOCH>19546</REV_AT_EPOCH><BSTAR>.89563698E-4</BSTAR><MEAN_MOTION_DOT>.48E-6</MEAN_MOTION_DOT><MEAN_MOTION_DDOT>0</MEAN_MOTION_DDOT></tleParameters></data></segment></body></omm>
<omm id="CCSDS_OMM_VERS" version="2.0">
<header><CREATION_DATE/><ORIGINATOR/></header><body><segment><metadata><OBJECT_NAME>ONEWEB-0308</OBJECT_NAME><OBJECT_ID>2021-075V</OBJECT_ID><CENTER_NAME>EARTH</CENTER_NAME><REF_FRAME>TEME</REF_FRAME><TIME_SYSTEM>UTC</TIME_SYSTEM><MEAN_ELEMENT_THEORY>SGP4</MEAN_ELEMENT_THEORY></metadata><data><meanElements><EPOCH>2025-08-31T12:28:07.671072</EPOCH><MEAN_MOTION>13.12443401</MEAN_MOTION><ECCENTRICITY>.00016853</ECCENTRICITY><INCLINATION>87.8878</INCLINATION><RA_OF_ASC_NODE>48.2120</RA_OF_ASC_NODE><ARG_OF_PERICENTER>91.4755</ARG_OF_PERICENTER><MEAN_ANOMALY>268.6567</MEAN_ANOMALY></meanElements><tleParameters><EPHEMERIS_TYPE>0</EPHEMERIS_TYPE><CLASSIFICATION_TYPE>U</CLASSIFICATION_TYPE><NORAD_CAT_ID>49094</NORAD_CAT_ID><ELEMENT_SET_NO>999</ELEMENT_SET_NO><REV_AT_EPOCH>19656</REV_AT_EPOCH><BSTAR>.12911691E-2</BSTAR><MEAN_MOTION_DOT>.477E-5</MEAN_MOTION_DOT><MEAN_MOTION_DDOT>0</MEAN_MOTION_DDOT></tleParameters></data></segment></body></omm>
<omm id="CCSDS_OMM_VERS" version="2.0">
<header><CREATION_DATE/><ORIGINATOR/></header><body><segment><metadata><OBJECT_NAME>ONEWEB-0309</OBJECT_NAME><OBJECT_ID>2021-075W</OBJECT_ID><CENTER_NAME>EARTH</CENTER_NAME><REF_FRAME>TEME</REF_FRAME><TIME_SYSTEM>UTC</TIME_SYSTEM><MEAN_ELEMENT_THEORY>SGP4</MEAN_ELEMENT_THEORY></metadata><data><meanElements><EPOCH>2025-08-31T13:03:56.230848</EPOCH><MEAN_MOTION>13.17648818</MEAN_MOTION><ECCENTRICITY>.00014191</ECCENTRICITY><INCLINATION>87.9031</INCLINATION><RA_OF_ASC_NODE>63.4801</RA_OF_ASC_NODE><ARG_OF_PERICENTER>102.1124</ARG_OF_PERICENTER><MEAN_ANOMALY>258.0167</MEAN_ANOMALY></meanElements><tleParameters><EPHEMERIS_TYPE>0</EPHEMERIS_TYPE><CLASSIFICATION_TYPE>U</CLASSIFICATION_TYPE><NORAD_CAT_ID>49095</NORAD_CAT_ID><ELEMENT_SET_NO>999</ELEMENT_SET_NO><REV_AT_EPOCH>19543</REV_AT_EPOCH><BSTAR>-.52549241E-3</BSTAR><MEAN_MOTION_DOT>-.191E-5</MEAN_MOTION_DOT><MEAN_MOTION_DDOT>0</MEAN_MOTION_DDOT></tleParameters></data></segment></body></omm>
<omm id="CCSDS_OMM_VERS" version="2.0">
<header><CREATION_DATE/><ORIGINATOR/></header><body><segment><metadata><OBJECT_NAME>ONEWEB-0310</OBJECT_NAME><OBJECT_ID>2021-075X</OBJECT_ID><CENTER_NAME>EARTH</CENTER_NAME><REF_FRAME>TEME</REF_FRAME><TIME_SYSTEM>UTC</TIME_SYSTEM><MEAN_ELEMENT_THEORY>SGP4</MEAN_ELEMENT_THEORY></metadata><data><meanElements><EPOCH>2025-08-31T10:59:21.745248</EPOCH><MEAN_MOTION>13.12441823</MEAN_MOTION><ECCENTRICITY>.00016064</ECCENTRICITY><INCLINATION>87.8873</INCLINATION><RA_OF_ASC_NODE>48.2699</RA_OF_ASC_NODE><ARG_OF_PERICENTER>95.2639</ARG_OF_PERICENTER><MEAN_ANOMALY>264.8673</MEAN_ANOMALY></meanElements><tleParameters><EPHEMERIS_TYPE>0</EPHEMERIS_TYPE><CLASSIFICATION_TYPE>U</CLASSIFICATION_TYPE><NORAD_CAT_ID>49096</NORAD_CAT_ID><ELEMENT_SET_NO>999</ELEMENT_SET_NO><REV_AT_EPOCH>19718</REV_AT_EPOCH><BSTAR>.10290664E-2</BSTAR><MEAN_MOTION_DOT>.383E-5</MEAN_MOTION_DOT><MEAN_MOTION_DDOT>0</MEAN_MOTION_DDOT></tleParameters></data></segment></body></omm>

</ndm>
