ONEWEB-0300             
1 49089U 21075Q   25243.47897205 -.00000302  00000+0 -87437-3 0  9991
2 49089  87.8873  48.2180 0001909  83.7313 276.4033 13.12441731197201
ONEWEB-0301             
1 49090U 21075R   25243.53899522  .00000292  00000+0  77557-3 0  9992
2 49090  87.8871  48.2108 0001939  80.5638 279.5709 13.12442159196577
ONEWEB-0302             
1 49091U 21075S   25243.52601720  .00000355  00000+0  95083-3 0  9997
2 49091  87.8882  48.2191 0001600 103.4247 256.7060 13.12445244196551
ONEWEB-0304             
1 49092U 21075T   25243.54778735  .00000042  00000+0  74811-4 0  9991
2 49092  87.9032  63.4856 0001801  94.6727 265.4610 13.17648454195431
ONEWEB-0305             
1 49093U 21075U   25243.54103934  .00000048  00000+0  89564-4 0  9992
2 49093  87.9038  63.4634 0002021 100.2574 259.8786 13.17650864195463
ONEWEB-0308             
1 49094U 21075V   25243.51953323  .00000477  00000+0  12912-2 0  9992
2 49094  87.8878  48.2120 0001685  91.4755 268.6567 13.12443401196562
ONEWEB-0309             
1 49095U 21075W   25243.54440082 -.00000191  00000+0 -52549-3 0  9995
2 49095  87.9031  63.4801 0001419 102.1124 258.0167 13.17648818195433
ONEWEB-0310             
1 49096U 21075X   25243.45789057  .00000383  00000+0  10291-2 0  9992
2 49096  87.8873  48.2699 0001606  95.2639 264.8673 13.12441823197187
